<?xml version="1.0" encoding="UTF-8"?><kml xmlns="http://www.opengis.net/kml/2.2"><Document><name>05 蓝线 A｜9/29 返程</name><description>共用一张地图；蓝线 A 9/29 返程，红线 B 延长至 10/1；F 餐厅，H 候选酒店。</description><Style id="airport"><IconStyle><color>ffc95d26</color><scale>1.1</scale><Icon><href>https://maps.google.com/mapfiles/kml/paddle/wht-blank.png</href></Icon></IconStyle><LineStyle><color>ffc95d26</color><width>3</width></LineStyle></Style><Style id="sight"><IconStyle><color>ff848c00</color><scale>1.1</scale><Icon><href>https://maps.google.com/mapfiles/kml/paddle/wht-blank.png</href></Icon></IconStyle><LineStyle><color>ff848c00</color><width>3</width></LineStyle></Style><Style id="stay"><IconStyle><color>ff856957</color><scale>1.1</scale><Icon><href>https://maps.google.com/mapfiles/kml/paddle/wht-blank.png</href></Icon></IconStyle><LineStyle><color>ff856957</color><width>3</width></LineStyle></Style><Style id="pier"><IconStyle><color>ff967808</color><scale>1.1</scale><Icon><href>https://maps.google.com/mapfiles/kml/paddle/wht-blank.png</href></Icon></IconStyle><LineStyle><color>ff967808</color><width>3</width></LineStyle></Style><Style id="bus"><IconStyle><color>ff256199</color><scale>1.1</scale><Icon><href>https://maps.google.com/mapfiles/kml/paddle/wht-blank.png</href></Icon></IconStyle><LineStyle><color>ff256199</color><width>3</width></LineStyle></Style><Style id="food"><IconStyle><color>ff2e58c8</color><scale>1.1</scale><Icon><href>https://maps.google.com/mapfiles/kml/paddle/wht-blank.png</href></Icon></IconStyle><LineStyle><color>ff2e58c8</color><width>3</width></LineStyle></Style><Style id="hotel"><IconStyle><color>ffb95680</color><scale>1.1</scale><Icon><href>https://maps.google.com/mapfiles/kml/paddle/wht-blank.png</href></Icon></IconStyle><LineStyle><color>ffb95680</color><width>3</width></LineStyle></Style><Style id="route"><IconStyle><color>ff9b826c</color><scale>1.1</scale><Icon><href>https://maps.google.com/mapfiles/kml/paddle/wht-blank.png</href></Icon></IconStyle><LineStyle><color>ff9b826c</color><width>3</width></LineStyle></Style><Style id="blue"><IconStyle><color>ffe36d1a</color><scale>1.1</scale><Icon><href>https://maps.google.com/mapfiles/kml/paddle/wht-blank.png</href></Icon></IconStyle><LineStyle><color>ffe36d1a</color><width>7</width></LineStyle></Style><Style id="red"><IconStyle><color>ff3539e5</color><scale>1.1</scale><Icon><href>https://maps.google.com/mapfiles/kml/paddle/wht-blank.png</href></Icon></IconStyle><LineStyle><color>ff3539e5</color><width>3</width></LineStyle></Style><Placemark id="route-A-29"><name>A 9/29｜曼谷 → 上海（顺序示意）</name><description>今天以返程为主，按机票确认机场和出发日期。
国际航班提前约 3 小时到正确机场，市区接驳另算。若是凌晨起飞，需要前一晚离开酒店；上海抵达日期按机票，不默认与起飞日相同。
连线只表示行程先后，不是实际道路、航线或导航。曼谷机场按 BKK 举例。A/B 返程路径重合，可取消勾选另一分支查看。</description><styleUrl>#blue</styleUrl><LineString><tessellate>1</tessellate><coordinates>100.5603142,13.7370043,0 100.7523198,13.6816744,0 121.80528,31.14333,0</coordinates></LineString></Placemark></Document></kml>