<?xml version="1.0" encoding="UTF-8"?><kml xmlns="http://www.opengis.net/kml/2.2"><Document><name>06 红线 B｜9/29—10/1</name><description>共用一张地图；蓝线 A 9/29 返程，红线 B 延长至 10/1；F 餐厅，H 候选酒店。</description><Style id="airport"><IconStyle><color>ffc95d26</color><scale>1.1</scale><Icon><href>https://maps.google.com/mapfiles/kml/paddle/wht-blank.png</href></Icon></IconStyle><LineStyle><color>ffc95d26</color><width>3</width></LineStyle></Style><Style id="sight"><IconStyle><color>ff848c00</color><scale>1.1</scale><Icon><href>https://maps.google.com/mapfiles/kml/paddle/wht-blank.png</href></Icon></IconStyle><LineStyle><color>ff848c00</color><width>3</width></LineStyle></Style><Style id="stay"><IconStyle><color>ff856957</color><scale>1.1</scale><Icon><href>https://maps.google.com/mapfiles/kml/paddle/wht-blank.png</href></Icon></IconStyle><LineStyle><color>ff856957</color><width>3</width></LineStyle></Style><Style id="pier"><IconStyle><color>ff967808</color><scale>1.1</scale><Icon><href>https://maps.google.com/mapfiles/kml/paddle/wht-blank.png</href></Icon></IconStyle><LineStyle><color>ff967808</color><width>3</width></LineStyle></Style><Style id="bus"><IconStyle><color>ff256199</color><scale>1.1</scale><Icon><href>https://maps.google.com/mapfiles/kml/paddle/wht-blank.png</href></Icon></IconStyle><LineStyle><color>ff256199</color><width>3</width></LineStyle></Style><Style id="food"><IconStyle><color>ff2e58c8</color><scale>1.1</scale><Icon><href>https://maps.google.com/mapfiles/kml/paddle/wht-blank.png</href></Icon></IconStyle><LineStyle><color>ff2e58c8</color><width>3</width></LineStyle></Style><Style id="hotel"><IconStyle><color>ffb95680</color><scale>1.1</scale><Icon><href>https://maps.google.com/mapfiles/kml/paddle/wht-blank.png</href></Icon></IconStyle><LineStyle><color>ffb95680</color><width>3</width></LineStyle></Style><Style id="show"><IconStyle><color>ffad448e</color><scale>1.1</scale><Icon><href>https://maps.google.com/mapfiles/kml/paddle/wht-blank.png</href></Icon></IconStyle><LineStyle><color>ffad448e</color><width>3</width></LineStyle></Style><Style id="route"><IconStyle><color>ff9b826c</color><scale>1.1</scale><Icon><href>https://maps.google.com/mapfiles/kml/paddle/wht-blank.png</href></Icon></IconStyle><LineStyle><color>ff9b826c</color><width>3</width></LineStyle></Style><Style id="blue"><IconStyle><color>ffe36d1a</color><scale>1.1</scale><Icon><href>https://maps.google.com/mapfiles/kml/paddle/wht-blank.png</href></Icon></IconStyle><LineStyle><color>ffe36d1a</color><width>7</width></LineStyle></Style><Style id="red"><IconStyle><color>ff3539e5</color><scale>1.1</scale><Icon><href>https://maps.google.com/mapfiles/kml/paddle/wht-blank.png</href></Icon></IconStyle><LineStyle><color>ff3539e5</color><width>3</width></LineStyle></Style><Placemark id="bacc"><name>B 9/29｜曼谷文化艺术中心 BACC</name><description>景点
文化艺术中心，看当天开放的展览。
B 9/29 上午偏晚—下午：看当天开放的展览，按兴趣逛 1—2 小时。
参考位置，入口和营业安排出发前复核。
坐标来源：https://www.google.com/maps/place/%E6%9B%BC%E8%B0%B7%E6%96%87%E5%8C%96%E8%89%BA%E6%9C%AF%E4%B8%AD%E5%BF%83/@13.7467339,100.5302168,17z/data=!4m6!3m5!1s0x30e29ecd506f6c7d:0x1ed0028ba796150b!8m2!3d13.7467339!4d100.5302168!16s%2Fm%2F043rs1m</description><styleUrl>#sight</styleUrl><Point><coordinates>100.5302168,13.7467339,0</coordinates></Point></Placemark><Placemark id="lumphini"><name>B 9/30｜伦披尼公园</name><description>景点
公园散步；高温或下雨改室内。
B 9/30 清晨—上午：公园步行，避开正午暴晒；雨天不勉强。
参考位置，入口和营业安排出发前复核。
坐标来源：https://www.google.com/maps/place/%E4%BC%A6%E6%8A%AB%E5%B0%BC%E5%85%AC%E5%9B%AD/@13.7314281,100.5416984,17z/data=!4m6!3m5!1s0x30e29f26ed4bb01b:0xac01b20801f96936!8m2!3d13.7314281!4d100.5416984!16zL20vMDlyeGN6</description><styleUrl>#sight</styleUrl><Point><coordinates>100.5416984,13.7314281,0</coordinates></Point></Placemark><Placemark id="food-savoey"><name>9/30｜F18 Savoey · Terminal 21 Asok</name><description>F18 · 曼谷 · Terminal 21 Asok 5 楼
Terminal 21 Asok 商场参考位置 · 5 楼。
每餐三选一，不代表这些餐都必须来此店。
B 9/30 晚餐 选项A：咖喱蟹肉／虾、炒青菜配饭；฿350–550／人（规划额）。三人分享更合适；海鲜按重量的品项先问整盘价。
位置来源：https://www.openstreetmap.org/way/157656710
Savoey 官方｜分店：https://www.savoey.co.th/th/branches/</description><styleUrl>#food</styleUrl><Point><coordinates>100.5604208,13.7379237,0</coordinates></Point></Placemark><Placemark id="route-B-29"><name>B 9/29｜曼谷文化艺术中心与 Siam（顺序示意）</name><description>睡到自然醒，下午看展、咖啡店和商圈慢逛。
B 方案专属。BACC 公开常规时间为周二至周日 10:00—21:00；实际展览、票价及临时闭馆出发前确认。A 方案今天返程。
连线只表示行程先后，不是实际道路、航线或导航。曼谷机场按 BKK 举例。A/B 返程路径重合，可取消勾选另一分支查看。</description><styleUrl>#red</styleUrl><LineString><tessellate>1</tessellate><coordinates>100.5302168,13.7467339,0 100.5349375,13.7468007,0</coordinates></LineString></Placemark><Placemark id="route-B-30"><name>B 9/30｜伦披尼公园与出发前休整（顺序示意）</name><description>早上公园散步，午后回 Asok 休息、正规按摩或补买用品。
B 方案专属。雨大改室内，不再跨城；按摩等自选消费另计。今晚核对 10/1 的机场、起飞时刻和上海落地日；凌晨航班今晚就出发。
连线只表示行程先后，不是实际道路、航线或导航。曼谷机场按 BKK 举例。A/B 返程路径重合，可取消勾选另一分支查看。</description><styleUrl>#red</styleUrl><LineString><tessellate>1</tessellate><coordinates>100.5416984,13.7314281,0 100.5603142,13.7370043,0 100.5604208,13.7379237,0</coordinates></LineString></Placemark><Placemark id="route-B-1001"><name>B 10/1｜曼谷 → 上海（顺序示意）</name><description>今天以返程为主，按机票确认机场和出发日期。
国际航班提前约 3 小时到正确机场，市区接驳另算。若是凌晨起飞，需要前一晚离开酒店；上海抵达日期按机票，不默认与起飞日相同。
连线只表示行程先后，不是实际道路、航线或导航。曼谷机场按 BKK 举例。A/B 返程路径重合，可取消勾选另一分支查看。</description><styleUrl>#red</styleUrl><LineString><tessellate>1</tessellate><coordinates>100.5603142,13.7370043,0 100.7523198,13.6816744,0 121.80528,31.14333,0</coordinates></LineString></Placemark></Document></kml>