<?xml version="1.0" encoding="UTF-8"?><kml xmlns="http://www.opengis.net/kml/2.2"><Document><name>04 曼谷｜9/28—30</name><description>9/20 搭 9C8521 到普吉；9/24 搭 DD525 到 DMK 后转往芭提雅；9/28 抵达曼谷；9/30 搭 FD496 返回杭州。F 为餐厅，住宿为实际入住记录。</description><Style id="airport"><IconStyle><color>ffc95d26</color><scale>1.1</scale><Icon><href>https://maps.google.com/mapfiles/kml/paddle/wht-blank.png</href></Icon></IconStyle><LineStyle><color>ffc95d26</color><width>3</width></LineStyle></Style><Style id="sight"><IconStyle><color>ff848c00</color><scale>1.1</scale><Icon><href>https://maps.google.com/mapfiles/kml/paddle/wht-blank.png</href></Icon></IconStyle><LineStyle><color>ff848c00</color><width>3</width></LineStyle></Style><Style id="stay"><IconStyle><color>ff856957</color><scale>1.1</scale><Icon><href>https://maps.google.com/mapfiles/kml/paddle/wht-blank.png</href></Icon></IconStyle><LineStyle><color>ff856957</color><width>3</width></LineStyle></Style><Style id="pier"><IconStyle><color>ff967808</color><scale>1.1</scale><Icon><href>https://maps.google.com/mapfiles/kml/paddle/wht-blank.png</href></Icon></IconStyle><LineStyle><color>ff967808</color><width>3</width></LineStyle></Style><Style id="bus"><IconStyle><color>ff256199</color><scale>1.1</scale><Icon><href>https://maps.google.com/mapfiles/kml/paddle/wht-blank.png</href></Icon></IconStyle><LineStyle><color>ff256199</color><width>3</width></LineStyle></Style><Style id="food"><IconStyle><color>ff2e58c8</color><scale>1.1</scale><Icon><href>https://maps.google.com/mapfiles/kml/paddle/wht-blank.png</href></Icon></IconStyle><LineStyle><color>ff2e58c8</color><width>3</width></LineStyle></Style><Style id="hotel"><IconStyle><color>ffb95680</color><scale>1.1</scale><Icon><href>https://maps.google.com/mapfiles/kml/paddle/wht-blank.png</href></Icon></IconStyle><LineStyle><color>ffb95680</color><width>3</width></LineStyle></Style><Style id="show"><IconStyle><color>ffad448e</color><scale>1.1</scale><Icon><href>https://maps.google.com/mapfiles/kml/paddle/wht-blank.png</href></Icon></IconStyle><LineStyle><color>ffad448e</color><width>3</width></LineStyle></Style><Style id="route"><IconStyle><color>ff9b826c</color><scale>1.1</scale><Icon><href>https://maps.google.com/mapfiles/kml/paddle/wht-blank.png</href></Icon></IconStyle><LineStyle><color>ff9b826c</color><width>3</width></LineStyle></Style><Placemark id="mochit"><name>9/24｜Mo Chit Bus Terminal · 曼谷北部汽车站</name><description>汽车站
Mo Chit Bus Terminal／曼谷北部汽车站；在 1 号窗口购买前往 North Pattaya Bus Terminal 的车票。
9/24 A1 巴士抵达后：在 Mo Chit Bus Terminal 的 1 号窗口购买前往芭提雅北站的车票。
实际入口和候车区以现场为准。
坐标来源：https://www.openstreetmap.org/way/31151623</description><styleUrl>#bus</styleUrl><Point><coordinates>100.5477552,13.8123644,0</coordinates></Point></Placemark><Placemark id="siam"><name>9/29｜Siam 商圈 · 暹罗百丽宫</name><description>景点
暹罗百丽宫四楼办理本地电话卡，希望回国后仍可使用。
9/29 中午—下午：打摩的到暹罗百丽宫四楼办理本地电话卡，之后在曼谷闲逛。
实际入口和候车区以现场为准。
坐标来源：https://www.openstreetmap.org/way/781138575</description><styleUrl>#sight</styleUrl><Point><coordinates>100.5349375,13.7468007,0</coordinates></Point></Placemark><Placemark id="ekkamai"><name>9/28｜曼谷 Ekkamai 汽车站</name><description>汽车站
从芭提雅北汽车站乘车抵达汽车东站 สถานีขนส่งผู้โดยสารเอกมัย。
9/28 抵达曼谷：抵达汽车东站 สถานีขนส่งผู้โดยสารเอกมัย，随后打车去 RCA。
实际入口和候车区以现场为准。
坐标来源：https://www.openstreetmap.org/relation/20443105</description><styleUrl>#bus</styleUrl><Point><coordinates>100.5840204,13.7194034,0</coordinates></Point></Placemark><Placemark id="kodtalay-rca"><name>9/28｜Kodtalay Seafood Buffet · RCA Rama 9</name><description>实际用餐
Kodtalay Seafood Buffet RCA Rama 9；螃蟹看着很活，但蒸出来有臭味，整体感觉一般。
9/28 晚餐：吃海鲜自助；螃蟹很活，但蒸出来有臭味，整体评价一般。
实际入口和候车区以现场为准。
坐标来源：https://www.wongnai.com/restaurants/3289571BJ-kodtalay-seafood-buffet-rca-rama9-%E0%B9%82%E0%B8%84%E0%B8%95%E0%B8%A3%E0%B8%97%E0%B8%B0%E0%B9%80%E0%B8%A5-kodtalay-seafood-buffet-rca</description><styleUrl>#food</styleUrl><Point><coordinates>100.57470453951325,13.752873841839934,0</coordinates></Point></Placemark><Placemark id="nana-bts"><name>9/29｜Nana BTS Station</name><description>汽车站
从 Nana 站搭 BTS 前往 Mo Chit。
9/29 傍晚：从 Nana 站乘 BTS 前往 Mo Chit。
实际入口和候车区以现场为准。
坐标来源：https://www.openstreetmap.org/relation/2108211</description><styleUrl>#bus</styleUrl><Point><coordinates>100.5554295,13.7405426,0</coordinates></Point></Placemark><Placemark id="mochit-bts"><name>9/29｜Mo Chit BTS Station · A1 上车点</name><description>汽车站
Mo Chit BTS Station 1 号口出站，乘 30 泰铢 A1 大巴直达廊曼机场。
9/29 换乘 A1：从 1 号口出站，乘 30 泰铢的 A1 大巴直达廊曼机场。
实际入口和候车区以现场为准。
坐标来源：https://www.openstreetmap.org/way/157661473</description><styleUrl>#bus</styleUrl><Point><coordinates>100.5538887,13.8027222,0</coordinates></Point></Placemark><Placemark id="hotel-teja-bangkok"><name>9/28 入住 · 9/29 退房 · 1 晚｜Teja Hotel</name><description>实际入住酒店
Teja Hotel Bangkok
Sukhumvit Soi 4 · 167 Soi 4
9/28 入住 · 9/29 退房 · 1 晚
9/28 从 RCA 吃完海鲜自助后打车入住，住 1 晚；当晚步行去附近广场见见世面。
酒店官网：https://www.tejahotel.com/
坐标来源：https://www.tejahotel.com/contact-us</description><styleUrl>#hotel</styleUrl><Point><coordinates>100.55529,13.73541,0</coordinates></Point></Placemark><Placemark id="hotel-don-muang"><name>9/29 入住 · 9/30 退房 · 1 晚｜Don Muang Hotel</name><description>实际入住酒店
Don Muang Hotel Bangkok
廊曼机场附近 · 5 Saranakhom 3 Alley
9/29 入住 · 9/30 退房 · 1 晚
9/29 搭 A1 到廊曼机场后入住，住 1 晚；9/30 上午步行约 15 分钟前往廊曼机场。
酒店官网：https://www.google.com/travel/hotels/entity/ChkIle_LsLWD_IR0Gg0vZy8xMWJ3NHk0EAE
坐标来源：https://www.google.com/maps/search/?api=1&amp;query=Don%20Muang%20Hotel%20Bangkok</description><styleUrl>#hotel</styleUrl><Point><coordinates>100.5984167,13.9256333,0</coordinates></Point></Placemark><Placemark id="route-28"><name>9/28｜芭提雅北站 → Ekkamai → RCA 海鲜自助（顺序示意）</name><description>从芭提雅北汽车站乘车抵达曼谷汽车东站，打车去吃 Kodtalay 海鲜自助，再入住 Teja Hotel。
实际经历：从芭提雅北汽车站出发，抵达汽车东站 สถานีขนส่งผู้โดยสารเอกมัย；打车去 Kodtalay Seafood Buffet RCA Rama 9。螃蟹看着很活，但蒸出来有臭味，整体感觉一般。之后打车入住 Teja Hotel，再步行去附近广场见见世面；具体广场名称未记录。
连线只表示行程先后，不是实际道路、航线或导航。曼谷机场按 BKK 举例。</description><styleUrl>#route</styleUrl><LineString><tessellate>1</tessellate><coordinates>100.9034026,12.9497299,0 100.5840204,13.7194034,0 100.57470453951325,13.752873841839934,0 100.55529,13.73541,0</coordinates></LineString></Placemark><Placemark id="route-29"><name>9/29｜暹罗百丽宫 → Nana → Mo Chit → 廊曼（顺序示意）</name><description>中午起床，去暹罗百丽宫办理本地电话卡；闲逛后搭 BTS 与 A1 大巴前往廊曼。
实际经历：中午起床后打摩的到暹罗百丽宫四楼办理本地电话卡，希望回国后还能使用。曼谷闲逛后，从 Nana 站搭 BTS 到 Mo Chit BTS Station；1 号口出站乘 A1 大巴，票价 30 泰铢，直达廊曼机场，之后入住 Don Muang Hotel。
连线只表示行程先后，不是实际道路、航线或导航。曼谷机场按 BKK 举例。</description><styleUrl>#route</styleUrl><LineString><tessellate>1</tessellate><coordinates>100.5349375,13.7468007,0 100.5554295,13.7405426,0 100.5538887,13.8027222,0 100.6040594,13.9126385,0 100.5984167,13.9256333,0</coordinates></LineString></Placemark></Document></kml>