<?xml version="1.0" encoding="UTF-8"?><kml xmlns="http://www.opengis.net/kml/2.2"><Document><name>01 机场与跨城交通</name><description>9/20 搭 9C8521 到普吉；9/24 搭 DD525 到 DMK 后转往芭提雅；9/28 抵达曼谷；9/30 搭 FD496 返回杭州。F 为餐厅，住宿为实际入住记录。</description><Style id="airport"><IconStyle><color>ffc95d26</color><scale>1.1</scale><Icon><href>https://maps.google.com/mapfiles/kml/paddle/wht-blank.png</href></Icon></IconStyle><LineStyle><color>ffc95d26</color><width>3</width></LineStyle></Style><Style id="sight"><IconStyle><color>ff848c00</color><scale>1.1</scale><Icon><href>https://maps.google.com/mapfiles/kml/paddle/wht-blank.png</href></Icon></IconStyle><LineStyle><color>ff848c00</color><width>3</width></LineStyle></Style><Style id="stay"><IconStyle><color>ff856957</color><scale>1.1</scale><Icon><href>https://maps.google.com/mapfiles/kml/paddle/wht-blank.png</href></Icon></IconStyle><LineStyle><color>ff856957</color><width>3</width></LineStyle></Style><Style id="pier"><IconStyle><color>ff967808</color><scale>1.1</scale><Icon><href>https://maps.google.com/mapfiles/kml/paddle/wht-blank.png</href></Icon></IconStyle><LineStyle><color>ff967808</color><width>3</width></LineStyle></Style><Style id="bus"><IconStyle><color>ff256199</color><scale>1.1</scale><Icon><href>https://maps.google.com/mapfiles/kml/paddle/wht-blank.png</href></Icon></IconStyle><LineStyle><color>ff256199</color><width>3</width></LineStyle></Style><Style id="food"><IconStyle><color>ff2e58c8</color><scale>1.1</scale><Icon><href>https://maps.google.com/mapfiles/kml/paddle/wht-blank.png</href></Icon></IconStyle><LineStyle><color>ff2e58c8</color><width>3</width></LineStyle></Style><Style id="hotel"><IconStyle><color>ffb95680</color><scale>1.1</scale><Icon><href>https://maps.google.com/mapfiles/kml/paddle/wht-blank.png</href></Icon></IconStyle><LineStyle><color>ffb95680</color><width>3</width></LineStyle></Style><Style id="show"><IconStyle><color>ffad448e</color><scale>1.1</scale><Icon><href>https://maps.google.com/mapfiles/kml/paddle/wht-blank.png</href></Icon></IconStyle><LineStyle><color>ffad448e</color><width>3</width></LineStyle></Style><Style id="route"><IconStyle><color>ff9b826c</color><scale>1.1</scale><Icon><href>https://maps.google.com/mapfiles/kml/paddle/wht-blank.png</href></Icon></IconStyle><LineStyle><color>ff9b826c</color><width>3</width></LineStyle></Style><Placemark id="pvg"><name>9/20｜上海浦东机场 PVG</name><description>机场
上海浦东机场；本次旅行的出发机场。
9/20 9C8521：从上海搭乘 9C8521 飞往普吉。
实际入口和候车区以现场为准。
坐标来源：https://www.wikidata.org/wiki/Q36420</description><styleUrl>#airport</styleUrl><Point><coordinates>121.80528,31.14333,0</coordinates></Point></Placemark><Placemark id="hgh"><name>9/30｜杭州萧山国际机场 HGH</name><description>机场
9/30 搭乘泰国亚洲航空 FD496 抵达杭州萧山国际机场。
9/30 抵达杭州：抵达杭州萧山国际机场，旅行结束。
实际入口和候车区以现场为准。
坐标来源：https://www.wikidata.org/wiki/Q1197691</description><styleUrl>#airport</styleUrl><Point><coordinates>120.434444,30.229444,0</coordinates></Point></Placemark><Placemark id="hkt"><name>9/20、9/24｜普吉机场 HKT</name><description>机场
9/20 抵达后：入境、取行李，乘已确认的接机车辆去酒店。
9/24 DD525：乘机场大巴到 HKT，搭乘 DD525。
实际入口和候车区以现场为准。
坐标来源：https://www.openstreetmap.org/relation/20416548</description><styleUrl>#airport</styleUrl><Point><coordinates>98.3177466,8.1100064,0</coordinates></Point></Placemark><Placemark id="dmk"><name>9/24、9/29、9/30｜廊曼机场 DMK</name><description>机场
9/24 搭 DD525 抵达并乘 A1 前往 Mo Chit；9/29 搭 A1 返回，9/30 搭 FD496 飞往杭州。
9/24 航班抵达后：在廊曼机场乘坐 A1 巴士前往 Mo Chit Bus Terminal。
9/29 晚上：乘 A1 抵达廊曼机场。
9/30 FD496：从廊曼机场搭乘泰国亚洲航空 FD496 飞往杭州。
9/24 搭乘 DD525 抵达；9/29 搭 A1 返回机场；9/30 搭 FD496 飞往杭州。
实际入口和候车区以现场为准。
坐标来源：https://www.openstreetmap.org/way/159466978</description><styleUrl>#airport</styleUrl><Point><coordinates>100.6040594,13.9126385,0</coordinates></Point></Placemark><Placemark id="route-20"><name>9/20｜9C8521 · 上海 → 普吉岛（顺序示意）</name><description>搭乘 9C8521 抵达普吉，入住 Phuket Orchid Resort and Spa。
实际行程：9/20 搭乘 9C8521 从上海飞往普吉，抵达后前往卡伦海滩的酒店入住。
连线只表示行程先后，不是实际道路、航线或导航。曼谷机场按 BKK 举例。</description><styleUrl>#route</styleUrl><LineString><tessellate>1</tessellate><coordinates>121.80528,31.14333,0 98.3177466,8.1100064,0 98.2961731,7.8343817,0</coordinates></LineString></Placemark><Placemark id="route-24"><name>9/24｜DD525 · 普吉 → 廊曼 → 芭提雅（顺序示意）</name><description>搭乘 DD525 抵达廊曼机场，再坐 A1 巴士到 Mo Chit，转车前往芭提雅北站。
实际行程：先在 Kata Night Plaza 等机场大巴；旁边有酒店，可以询问酒店工作人员候车和上车位置。到 HKT 搭 DD525，抵达 DMK 后乘 A1 到 Mo Chit，在 1 号窗口购票前往 North Pattaya Bus Terminal。
连线只表示行程先后，不是实际道路、航线或导航。曼谷机场按 BKK 举例。</description><styleUrl>#route</styleUrl><LineString><tessellate>1</tessellate><coordinates>98.2982168,7.8246443,0 98.3177466,8.1100064,0 100.6040594,13.9126385,0 100.5477552,13.8123644,0 100.9034026,12.9497299,0 100.8805894,12.9106457,0</coordinates></LineString></Placemark><Placemark id="route-26"><name>9/26｜7-Eleven → Dongtan Beach → 酒吧与演出（顺序示意）</name><description>早上吃 7-Eleven 和门口面摊，下午去 Dongtan Beach 喂松鼠、沿海散步，晚上听歌并看了一场秀。
实际经历：7-Eleven 门口的面摊看着干净卫生，但吃完就拉肚子了。Dongtan Beach 买瓜子喂松鼠，沿海岸线散步并在麦当劳休息。晚饭仍由 7-Eleven 解决；晚上酒吧里居然听到了古风中文歌，之后看了一场秀再回酒店。
连线只表示行程先后，不是实际道路、航线或导航。曼谷机场按 BKK 举例。</description><styleUrl>#route</styleUrl><LineString><tessellate>1</tessellate><coordinates>100.8805894,12.9106457,0 100.86318,12.90181,0 100.8805894,12.9106457,0</coordinates></LineString></Placemark><Placemark id="route-30"><name>9/30｜FD496 · 廊曼 → 杭州萧山机场（顺序示意）</name><description>上午从 Don Muang Hotel 步行约 15 分钟到廊曼机场，搭乘泰国亚航 FD496 返回杭州。
实际行程：9/30 上午从 Don Muang Hotel 出发，步行约 15 分钟抵达廊曼机场，随后搭乘泰国亚洲航空 FD496 返回杭州萧山国际机场。
连线只表示行程先后，不是实际道路、航线或导航。曼谷机场按 BKK 举例。</description><styleUrl>#route</styleUrl><LineString><tessellate>1</tessellate><coordinates>100.5984167,13.9256333,0 100.6040594,13.9126385,0 120.434444,30.229444,0</coordinates></LineString></Placemark></Document></kml>